     3.02           N: GNSS NAV DATA    J: QZSS             RINEX VERSION / TYPE
cnvtToRINEX 2.30.0  REGINA              11-Jan-16 00:45 UTC PGM / RUN BY / DATE 
----------------------------------------------------------- COMMENT             
QZSA    0.4563D-07 -0.7004D-06  0.3874D-05 -0.7629D-05      IONOSPHERIC CORR    
QZSB    0.1597D+06 -0.1311D+07  0.3736D+07 -0.8389D+07      IONOSPHERIC CORR    
QZUT  0.2235174179D-07-0.444089210D-14 151552    0          TIME SYSTEM CORR    
    17                                                      LEAP SECONDS        
                                                            END OF HEADER       
J01 2016 01 17 18 15 12-0.867899507284D-04 0.370619090972D-10 0.277555756156D-16
     0.270000000000D+02 0.287437500000D+03 0.303048337465D-08 0.147800312289D+01
     0.985525548458D-05 0.746754583670D-01 0.985525548458D-05 0.649329874039D+04
     0.657120000000D+05 0.931322574615D-07 0.101264707078D+01-0.694766640663D-06
     0.709152097568D+00-0.293281250000D+03-0.156946442034D+01-0.273154235113D-08
     0.111790370803D-08 0.200000000000D+01 0.188000000000D+04 0.100000000000D+01
     0.240000000000D+01 0.100000000000D+01-0.512227416039D-08 0.270000000000D+02
     0.621060000000D+05 0.400000000000D+01 0.000000000000D+00 0.000000000000D+00
J01 2016 01 17 18 30 08-0.867564231157D-04 0.370619090972D-10 0.277555756156D-16
     0.280000000000D+02 0.280718750000D+03 0.306405620167D-08 0.154337369480D+01
     0.972673296928D-05 0.746756802546D-01 0.972673296928D-05 0.649329374313D+04
     0.666080000000D+05 0.132247805595D-06 0.101264467452D+01-0.663101673126D-06
     0.709153329345D+00-0.314812500000D+03-0.156949224358D+01-0.270046962826D-08
     0.111468928843D-08 0.200000000000D+01 0.188000000000D+04 0.100000000000D+01
     0.240000000000D+01 0.100000000000D+01-0.512227416039D-08 0.280000000000D+02
     0.630060000000D+05 0.400000000000D+01 0.000000000000D+00 0.000000000000D+00
J01 2016 01 17 18 45 04-0.867233611643D-04 0.370619090972D-10 0.277555756156D-16
     0.290000000000D+02 0.272437500000D+03 0.308441419252D-08 0.160874098977D+01
     0.956282019615D-05 0.746759986505D-01 0.956282019615D-05 0.649328936195D+04
     0.675040000000D+05 0.180676579475D-06 0.101264235726D+01-0.616535544395D-06
     0.709154621102D+00-0.333062500000D+03-0.156951664506D+01-0.266046796203D-08
     0.110968908015D-08 0.200000000000D+01 0.188000000000D+04 0.100000000000D+01
     0.240000000000D+01 0.100000000000D+01-0.512227416039D-08 0.290000000000D+02
     0.639060000000D+05 0.400000000000D+01 0.000000000000D+00 0.000000000000D+00
J01 2016 01 17 19 00 00-0.866902992129D-04 0.370619090972D-10 0.000000000000D+00
     0.300000000000D+02 0.263656250000D+03 0.309048587400D-08 0.167410419442D+01
     0.938773155212D-05 0.746763666393D-01 0.938773155212D-05 0.649328572083D+04
     0.684000000000D+05 0.227242708206D-06 0.101264013801D+01-0.549480319023D-06
     0.709155964061D+00-0.347468750000D+03-0.156953684210D+01-0.261260882564D-08
     0.110183160999D-08 0.200000000000D+01 0.188000000000D+04 0.100000000000D+01
     0.240000000000D+01 0.100000000000D+01-0.512227416039D-08 0.300000000000D+02
     0.648060000000D+05 0.400000000000D+01 0.000000000000D+00 0.000000000000D+00
J01 2016 01 17 19 15 12-0.866577029228D-04 0.368345354218D-10 0.000000000000D+00
     0.310000000000D+02 0.255687500000D+03 0.308191408838D-08 0.174062951193D+01
     0.923126935959D-05 0.746767277597D-01 0.923126935959D-05 0.649328292465D+04
     0.693120000000D+05 0.262632966042D-06 0.101263799337D+01-0.460073351860D-06
     0.709157362611D+00-0.357781250000D+03-0.156955222030D+01-0.255832085005D-08
     0.108968824703D-08 0.200000000000D+01 0.188000000000D+04 0.100000000000D+01
     0.240000000000D+01 0.100000000000D+01-0.512227416039D-08 0.310000000000D+02
     0.657060000000D+05 0.400000000000D+01 0.000000000000D+00 0.000000000000D+00
J01 2016 01 17 19 30 08-0.866246409714D-04 0.368345354218D-10 0.000000000000D+00
     0.320000000000D+02 0.249750000000D+03 0.305869883566D-08 0.180598283018D+01
     0.912137329578D-05 0.746770224068D-01 0.912137329578D-05 0.649328105927D+04
     0.702080000000D+05 0.277534127235D-06 0.101263601405D+01-0.348314642906D-06
     0.709158765549D+00-0.364062500000D+03-0.156956241099D+01-0.249903266617D-08
     0.107254467579D-08 0.200000000000D+01 0.188000000000D+04 0.100000000000D+01
     0.240000000000D+01 0.100000000000D+01-0.512227416039D-08 0.320000000000D+02
     0.666060000000D+05 0.400000000000D+01 0.000000000000D+00 0.000000000000D+00
J01 2016 01 17 19 45 04-0.865920446813D-04 0.366071617464D-10-0.277555756156D-16
     0.330000000000D+02 0.247000000000D+03 0.302119727356D-08 0.187133076782D+01
     0.908598303795D-05 0.746771879494D-01 0.908598303795D-05 0.649328017426D+04
     0.711040000000D+05 0.258907675743D-06 0.101263415907D+01-0.217929482460D-06
     0.709160174339D+00-0.366750000000D+03-0.156956721082D+01-0.243688722042D-08
     0.104968658080D-08 0.200000000000D+01 0.188000000000D+04 0.100000000000D+01
     0.240000000000D+01 0.100000000000D+01-0.512227416039D-08 0.330000000000D+02
     0.675060000000D+05 0.400000000000D+01 0.000000000000D+00 0.000000000000D+00
J01 2016 01 17 20 00 00-0.865589827299D-04 0.367208485841D-10 0.000000000000D+00
     0.340000000000D+02 0.248468750000D+03 0.297155234851D-08 0.193667334533D+01
     0.914558768272D-05 0.746771675767D-01 0.914558768272D-05 0.649328030777D+04
     0.720000000000D+05 0.197440385818D-06 0.101263242258D+01-0.819563865662D-07
     0.709161565574D+00-0.366656250000D+03-0.156956667539D+01-0.237438461694D-08
     0.102075680433D-08 0.200000000000D+01 0.188000000000D+04 0.100000000000D+01
     0.240000000000D+01 0.100000000000D+01-0.512227416039D-08 0.340000000000D+02
     0.684060000000D+05 0.400000000000D+01 0.000000000000D+00 0.000000000000D+00
J01 2016 01 17 20 15 12-0.865240581334D-04 0.370619090972D-10 0.277555756156D-16
     0.350000000000D+02 0.254812500000D+03 0.291119269143D-08 0.200317762608D+01
     0.931695103645D-05 0.746769069228D-01 0.931695103645D-05 0.649328145218D+04
     0.729120000000D+05 0.894069671631D-07 0.101263075193D+01 0.447034835815D-07
     0.709162934866D+00-0.364781250000D+03-0.156956104316D+01-0.231438211759D-08
     0.985755346381D-09 0.200000000000D+01 0.188000000000D+04 0.100000000000D+01
     0.240000000000D+01 0.100000000000D+01-0.512227416039D-08 0.350000000000D+02
     0.693060000000D+05 0.400000000000D+01 0.000000000000D+00 0.000000000000D+00
J01 2016 01 17 20 30 08-0.864895991981D-04 0.374029696104D-10 0.277555756156D-16
     0.360000000000D+02 0.266406250000D+03 0.284333272194D-08 0.206851035230D+01
     0.960752367973D-05 0.746763631469D-01 0.960752367973D-05 0.649328359032D+04
     0.738080000000D+05-0.633299350739D-07 0.101262918661D+01 0.145286321640D-06
     0.709164229548D+00-0.362218750000D+03-0.156955077055D+01-0.226045129973D-08
     0.945753680151D-09 0.200000000000D+01 0.188000000000D+04 0.100000000000D+01
     0.240000000000D+01 0.100000000000D+01-0.512227416039D-08 0.360000000000D+02
     0.702060000000D+05 0.400000000000D+01 0.000000000000D+00 0.000000000000D+00
J01 2016 01 17 20 45 04-0.864560715854D-04 0.375166564481D-10 0.277555756156D-16
     0.370000000000D+02 0.283187500000D+03 0.277154401736D-08 0.213383897942D+01
     0.100191682577D-04 0.746755052824D-01 0.100191682577D-04 0.649328667641D+04
     0.747040000000D+05-0.251457095146D-06 0.101262764323D+01 0.203028321266D-06
     0.709165443770D+00-0.360187500000D+03-0.156953647345D+01-0.221616374069D-08
     0.902537594314D-09 0.200000000000D+01 0.188000000000D+04 0.100000000000D+01
     0.240000000000D+01 0.100000000000D+01-0.512227416039D-08 0.370000000000D+02
     0.711060000000D+05 0.400000000000D+01 0.000000000000D+00 0.000000000000D+00
J01 2016 01 17 21 00 00-0.864230096340D-04 0.374029696104D-10 0.277555756156D-16
     0.380000000000D+02 0.304812500000D+03 0.269939815505D-08 0.219916426230D+01
     0.105407088995D-04 0.746743166819D-01 0.105407088995D-04 0.649329063034D+04
     0.756000000000D+05-0.460073351860D-06 0.101262606620D+01 0.201165676117D-06
     0.709166559977D+00-0.359875000000D+03-0.156951890380D+01-0.218509101781D-08
     0.858607193007D-09 0.200000000000D+01 0.188000000000D+04 0.100000000000D+01
     0.240000000000D+01 0.100000000000D+01-0.512227416039D-08 0.380000000000D+02
     0.720060000000D+05 0.400000000000D+01 0.000000000000D+00 0.000000000000D+00
J01 2016 01 17 21 15 12-0.863904133439D-04 0.371755959350D-10 0.000000000000D+00
     0.390000000000D+02 0.330468750000D+03 0.263225250103D-08 0.226565388754D+01
     0.111591070890D-04 0.746727962978D-01 0.111591070890D-04 0.649329535103D+04
     0.765120000000D+05-0.663101673126D-06 0.101262434289D+01 0.130385160446D-06
     0.709167575242D+00-0.362218750000D+03-0.156949888377D+01-0.217151902391D-08
     0.817891211309D-09 0.200000000000D+01 0.188000000000D+04 0.100000000000D+01
     0.240000000000D+01 0.100000000000D+01-0.512227416039D-08 0.390000000000D+02
     0.729060000000D+05 0.400000000000D+01 0.000000000000D+00 0.000000000000D+00
J01 2016 01 17 21 30 08-0.863587483764D-04 0.366071617464D-10-0.277555756156D-16
     0.400000000000D+02 0.359156250000D+03 0.257332147488D-08 0.233097511522D+01
     0.118482857943D-04 0.746709652012D-01 0.118482857943D-04 0.649330072021D+04
     0.774080000000D+05-0.830739736557D-06 0.101262246742D+01-0.745058059692D-08
     0.709168458844D+00-0.367968750000D+03-0.156947733499D+01-0.217830502086D-08
     0.784318384295D-09 0.200000000000D+01 0.188000000000D+04 0.100000000000D+01
     0.240000000000D+01 0.100000000000D+01-0.512227416039D-08 0.400000000000D+02
     0.738060000000D+05 0.400000000000D+01 0.000000000000D+00 0.000000000000D+00
